UNISAT-6                
1 40012U 14033C   26068.94246671  .00003766  00000+0  41208-3 0  9998
2 40012  97.7728 223.5167 0046049  36.9255 323.5117 14.87640019631404
LUDI TANCE 1-01A (L-SA*)
1 51284U 22007A   26066.46681852  .00001138  00000+0  12861-3 0  9994
2 51284  97.8118  75.3379 0001613  90.5550 269.5851 14.88423371223346
