[{"OBJECT_NAME":"UNISAT-6","OBJECT_ID":"2014-033C","EPOCH":"2026-03-09T22:37:09.123744","MEAN_MOTION":14.87640019,"ECCENTRICITY":0.00460496,"INCLINATION":97.7728,"RA_OF_ASC_NODE":223.5167,"ARG_OF_PERICENTER":36.9255,"MEAN_ANOMALY":323.5117,"EPHEMERIS_TYPE":0,"CLASSIFICATION_TYPE":"U","NORAD_CAT_ID":40012,"ELEMENT_SET_NO":999,"REV_AT_EPOCH":63140,"BSTAR":0.00041207686,"MEAN_MOTION_DOT":3.766e-5,"MEAN_MOTION_DDOT":0},{"OBJECT_NAME":"LUDI TANCE 1-01A (L-SAR 01A)","OBJECT_ID":"2022-007A","EPOCH":"2026-03-07T11:12:13.120128","MEAN_MOTION":14.88423371,"ECCENTRICITY":0.00016135,"INCLINATION":97.8118,"RA_OF_ASC_NODE":75.3379,"ARG_OF_PERICENTER":90.555,"MEAN_ANOMALY":269.5851,"EPHEMERIS_TYPE":0,"CLASSIFICATION_TYPE":"U","NORAD_CAT_ID":51284,"ELEMENT_SET_NO":999,"REV_AT_EPOCH":22334,"BSTAR":0.00012861429,"MEAN_MOTION_DOT":1.138e-5,"MEAN_MOTION_DDOT":0}]
